[{"OBJECT_NAME":"YUNHAI-1 03","OBJECT_ID":"2022-115A","EPOCH":"2026-03-09T22:42:18.502272","MEAN_MOTION":14.32645592,"ECCENTRICITY":0.00045037,"INCLINATION":98.5539,"RA_OF_ASC_NODE":68.3628,"ARG_OF_PERICENTER":355.0463,"MEAN_ANOMALY":5.0676,"EPHEMERIS_TYPE":0,"CLASSIFICATION_TYPE":"U","NORAD_CAT_ID":53877,"ELEMENT_SET_NO":999,"REV_AT_EPOCH":18130,"BSTAR":0.00016609215,"MEAN_MOTION_DOT":4.08e-6,"MEAN_MOTION_DDOT":0},{"OBJECT_NAME":"YAOGAN-11 DEB","OBJECT_ID":"2010-047D","EPOCH":"2026-03-09T05:18:16.155648","MEAN_MOTION":14.40865876,"ECCENTRICITY":0.0181265,"INCLINATION":97.8765,"RA_OF_ASC_NODE":61.715,"ARG_OF_PERICENTER":176.6723,"MEAN_ANOMALY":248.3503,"EPHEMERIS_TYPE":0,"CLASSIFICATION_TYPE":"U","NORAD_CAT_ID":38174,"ELEMENT_SET_NO":999,"REV_AT_EPOCH":80069,"BSTAR":0.00052955866,"MEAN_MOTION_DOT":2.019e-5,"MEAN_MOTION_DDOT":0}]
